[{"OBJECT_NAME":"ONEWEB-0594","OBJECT_ID":"2022-166U","EPOCH":"2025-12-24T06:27:43.340832","MEAN_MOTION":13.21826582,"ECCENTRICITY":0.00017435,"INCLINATION":87.9226,"RA_OF_ASC_NODE":278.8871,"ARG_OF_PERICENTER":73.4479,"MEAN_ANOMALY":286.6847,"EPHEMERIS_TYPE":0,"CLASSIFICATION_TYPE":"U","NORAD_CAT_ID":54660,"ELEMENT_SET_NO":999,"REV_AT_EPOCH":14845,"BSTAR":0.00015617194,"MEAN_MOTION_DOT":7.8e-7,"MEAN_MOTION_DDOT":0},{"OBJECT_NAME":"ONEWEB-0595","OBJECT_ID":"2022-166V","EPOCH":"2025-12-24T05:54:32.483520","MEAN_MOTION":13.21825968,"ECCENTRICITY":0.00015968,"INCLINATION":87.9223,"RA_OF_ASC_NODE":278.8645,"ARG_OF_PERICENTER":72.3863,"MEAN_ANOMALY":287.7445,"EPHEMERIS_TYPE":0,"CLASSIFICATION_TYPE":"U","NORAD_CAT_ID":54661,"ELEMENT_SET_NO":999,"REV_AT_EPOCH":14842,"BSTAR":5.6571795e-5,"MEAN_MOTION_DOT":3.6e-7,"MEAN_MOTION_DDOT":0},{"OBJECT_NAME":"ONEWEB-0596","OBJECT_ID":"2022-166W","EPOCH":"2025-12-24T07:05:38.237280","MEAN_MOTION":13.21825238,"ECCENTRICITY":0.00016621,"INCLINATION":87.9226,"RA_OF_ASC_NODE":278.8717,"ARG_OF_PERICENTER":76.7009,"MEAN_ANOMALY":283.4311,"EPHEMERIS_TYPE":0,"CLASSIFICATION_TYPE":"U","NORAD_CAT_ID":54662,"ELEMENT_SET_NO":999,"REV_AT_EPOCH":14843,"BSTAR":0.00020305884,"MEAN_MOTION_DOT":9.7e-7,"MEAN_MOTION_DDOT":0},{"OBJECT_NAME":"ONEWEB-0597","OBJECT_ID":"2022-166X","EPOCH":"2025-12-24T06:39:34.232256","MEAN_MOTION":13.21826452,"ECCENTRICITY":0.00018104,"INCLINATION":87.9225,"RA_OF_ASC_NODE":278.8801,"ARG_OF_PERICENTER":78.972,"MEAN_ANOMALY":281.1618,"EPHEMERIS_TYPE":0,"CLASSIFICATION_TYPE":"U","NORAD_CAT_ID":54663,"ELEMENT_SET_NO":999,"REV_AT_EPOCH":14843,"BSTAR":0.00048503015,"MEAN_MOTION_DOT":2.13e-6,"MEAN_MOTION_DDOT":0},{"OBJECT_NAME":"ONEWEB-0600","OBJECT_ID":"2022-166Y","EPOCH":"2025-12-24T06:13:29.912736","MEAN_MOTION":13.21826518,"ECCENTRICITY":0.00018898,"INCLINATION":87.9226,"RA_OF_ASC_NODE":278.8745,"ARG_OF_PERICENTER":75.4818,"MEAN_ANOMALY":284.6525,"EPHEMERIS_TYPE":0,"CLASSIFICATION_TYPE":"U","NORAD_CAT_ID":54664,"ELEMENT_SET_NO":999,"REV_AT_EPOCH":14840,"BSTAR":-7.0779253e-5,"MEAN_MOTION_DOT":-1.6e-7,"MEAN_MOTION_DDOT":0},{"OBJECT_NAME":"ONEWEB-0601","OBJECT_ID":"2022-166Z","EPOCH":"2025-12-24T06:01:39.009216","MEAN_MOTION":13.21826542,"ECCENTRICITY":0.00019324,"INCLINATION":87.9229,"RA_OF_ASC_NODE":278.8942,"ARG_OF_PERICENTER":83.304,"MEAN_ANOMALY":276.8314,"EPHEMERIS_TYPE":0,"CLASSIFICATION_TYPE":"U","NORAD_CAT_ID":54665,"ELEMENT_SET_NO":999,"REV_AT_EPOCH":14859,"BSTAR":2.4135085e-5,"MEAN_MOTION_DOT":2.3e-7,"MEAN_MOTION_DDOT":0},{"OBJECT_NAME":"ONEWEB-0602","OBJECT_ID":"2022-166AA","EPOCH":"2025-12-24T01:32:41.329536","MEAN_MOTION":13.21823943,"ECCENTRICITY":0.00020627,"INCLINATION":87.9228,"RA_OF_ASC_NODE":278.9353,"ARG_OF_PERICENTER":71.3464,"MEAN_ANOMALY":288.7894,"EPHEMERIS_TYPE":0,"CLASSIFICATION_TYPE":"U","NORAD_CAT_ID":54666,"ELEMENT_SET_NO":999,"REV_AT_EPOCH":14841,"BSTAR":0.00018430173,"MEAN_MOTION_DOT":8.9e-7,"MEAN_MOTION_DDOT":0},{"OBJECT_NAME":"ONEWEB-0603","OBJECT_ID":"2022-166AB","EPOCH":"2025-12-24T07:07:58.604448","MEAN_MOTION":13.2183939,"ECCENTRICITY":0.00024406,"INCLINATION":87.9208,"RA_OF_ASC_NODE":278.8334,"ARG_OF_PERICENTER":65.8856,"MEAN_ANOMALY":294.2533,"EPHEMERIS_TYPE":0,"CLASSIFICATION_TYPE":"U","NORAD_CAT_ID":54667,"ELEMENT_SET_NO":999,"REV_AT_EPOCH":14837,"BSTAR":-0.0048401916,"MEAN_MOTION_DOT":-1.986e-5,"MEAN_MOTION_DDOT":0},{"OBJECT_NAME":"ONEWEB-0604","OBJECT_ID":"2022-166AC","EPOCH":"2025-12-24T06:51:25.111584","MEAN_MOTION":13.21825701,"ECCENTRICITY":0.00017475,"INCLINATION":87.9228,"RA_OF_ASC_NODE":278.8502,"ARG_OF_PERICENTER":73.9181,"MEAN_ANOMALY":286.2145,"EPHEMERIS_TYPE":0,"CLASSIFICATION_TYPE":"U","NORAD_CAT_ID":54668,"ELEMENT_SET_NO":999,"REV_AT_EPOCH":14833,"BSTAR":8.1029884e-5,"MEAN_MOTION_DOT":4.6e-7,"MEAN_MOTION_DDOT":0},{"OBJECT_NAME":"ONEWEB-0605","OBJECT_ID":"2022-166AD","EPOCH":"2025-12-24T04:52:56.219808","MEAN_MOTION":13.2182668,"ECCENTRICITY":0.00018705,"INCLINATION":87.9224,"RA_OF_ASC_NODE":278.8944,"ARG_OF_PERICENTER":95.6732,"MEAN_ANOMALY":264.4616,"EPHEMERIS_TYPE":0,"CLASSIFICATION_TYPE":"U","NORAD_CAT_ID":54669,"ELEMENT_SET_NO":999,"REV_AT_EPOCH":14839,"BSTAR":0.00029093079,"MEAN_MOTION_DOT":1.33e-6,"MEAN_MOTION_DDOT":0},{"OBJECT_NAME":"ONEWEB-0606","OBJECT_ID":"2022-166AE","EPOCH":"2025-12-24T05:23:44.108448","MEAN_MOTION":13.218268,"ECCENTRICITY":0.00015708,"INCLINATION":87.9226,"RA_OF_ASC_NODE":278.9016,"ARG_OF_PERICENTER":71.4848,"MEAN_ANOMALY":288.6456,"EPHEMERIS_TYPE":0,"CLASSIFICATION_TYPE":"U","NORAD_CAT_ID":54670,"ELEMENT_SET_NO":999,"REV_AT_EPOCH":14845,"BSTAR":0.00017160613,"MEAN_MOTION_DOT":8.4e-7,"MEAN_MOTION_DDOT":0},{"OBJECT_NAME":"ONEWEB-0607","OBJECT_ID":"2022-166AF","EPOCH":"2025-12-24T06:25:20.698752","MEAN_MOTION":13.21827524,"ECCENTRICITY":0.0001858,"INCLINATION":87.9223,"RA_OF_ASC_NODE":278.8564,"ARG_OF_PERICENTER":77.5819,"MEAN_ANOMALY":282.5523,"EPHEMERIS_TYPE":0,"CLASSIFICATION_TYPE":"U","NORAD_CAT_ID":54671,"ELEMENT_SET_NO":999,"REV_AT_EPOCH":14843,"BSTAR":2.7571656e-5,"MEAN_MOTION_DOT":2.4e-7,"MEAN_MOTION_DDOT":0},{"OBJECT_NAME":"ONEWEB-0608","OBJECT_ID":"2022-166AG","EPOCH":"2025-12-24T06:34:49.764576","MEAN_MOTION":13.21826016,"ECCENTRICITY":0.00020465,"INCLINATION":87.9233,"RA_OF_ASC_NODE":278.8445,"ARG_OF_PERICENTER":90.6488,"MEAN_ANOMALY":269.488,"EPHEMERIS_TYPE":0,"CLASSIFICATION_TYPE":"U","NORAD_CAT_ID":54672,"ELEMENT_SET_NO":999,"REV_AT_EPOCH":14844,"BSTAR":0.00011974919,"MEAN_MOTION_DOT":6.2e-7,"MEAN_MOTION_DDOT":0},{"OBJECT_NAME":"ONEWEB-0610","OBJECT_ID":"2022-166AH","EPOCH":"2025-12-24T06:06:23.595264","MEAN_MOTION":13.21822753,"ECCENTRICITY":0.000216,"INCLINATION":87.9223,"RA_OF_ASC_NODE":278.8795,"ARG_OF_PERICENTER":90.1354,"MEAN_ANOMALY":270.0027,"EPHEMERIS_TYPE":0,"CLASSIFICATION_TYPE":"U","NORAD_CAT_ID":54673,"ELEMENT_SET_NO":999,"REV_AT_EPOCH":14834,"BSTAR":0.0016938086,"MEAN_MOTION_DOT":7.13e-6,"MEAN_MOTION_DDOT":0},{"OBJECT_NAME":"ONEWEB-0611","OBJECT_ID":"2022-166AJ","EPOCH":"2025-12-24T05:56:53.355264","MEAN_MOTION":13.21828454,"ECCENTRICITY":0.00016811,"INCLINATION":87.9226,"RA_OF_ASC_NODE":278.8769,"ARG_OF_PERICENTER":68.7235,"MEAN_ANOMALY":291.4078,"EPHEMERIS_TYPE":0,"CLASSIFICATION_TYPE":"U","NORAD_CAT_ID":54674,"ELEMENT_SET_NO":999,"REV_AT_EPOCH":14833,"BSTAR":2.5836672e-5,"MEAN_MOTION_DOT":2.4e-7,"MEAN_MOTION_DDOT":0},{"OBJECT_NAME":"ONEWEB-0612","OBJECT_ID":"2022-166AK","EPOCH":"2025-12-24T04:26:51.792288","MEAN_MOTION":13.21826486,"ECCENTRICITY":0.00018234,"INCLINATION":87.9223,"RA_OF_ASC_NODE":278.8692,"ARG_OF_PERICENTER":80.2315,"MEAN_ANOMALY":279.9025,"EPHEMERIS_TYPE":0,"CLASSIFICATION_TYPE":"U","NORAD_CAT_ID":54675,"ELEMENT_SET_NO":999,"REV_AT_EPOCH":14831,"BSTAR":0.00010541784,"MEAN_MOTION_DOT":5.7e-7,"MEAN_MOTION_DDOT":0},{"OBJECT_NAME":"ONEWEB-0615","OBJECT_ID":"2022-166AL","EPOCH":"2025-12-24T05:47:25.382400","MEAN_MOTION":13.21827918,"ECCENTRICITY":0.00017514,"INCLINATION":87.9226,"RA_OF_ASC_NODE":278.8845,"ARG_OF_PERICENTER":76.1533,"MEAN_ANOMALY":283.9796,"EPHEMERIS_TYPE":0,"CLASSIFICATION_TYPE":"U","NORAD_CAT_ID":54676,"ELEMENT_SET_NO":999,"REV_AT_EPOCH":14833,"BSTAR":7.135568e-5,"MEAN_MOTION_DOT":4.2e-7,"MEAN_MOTION_DDOT":0}]
