ONEWEB-0594             
1 54660U 22166U   25358.26925163  .00000078  00000+0  15617-3 0  9992
2 54660  87.9226 278.8871 0001743  73.4479 286.6847 13.21826582148458
ONEWEB-0595             
1 54661U 22166V   25358.24620930  .00000036  00000+0  56572-4 0  9995
2 54661  87.9223 278.8645 0001596  72.3863 287.7445 13.21825968148426
ONEWEB-0596             
1 54662U 22166W   25358.29558145  .00000097  00000+0  20306-3 0  9991
2 54662  87.9226 278.8717 0001662  76.7009 283.4311 13.21825238148430
ONEWEB-0597             
1 54663U 22166X   25358.27747954  .00000213  00000+0  48503-3 0  9997
2 54663  87.9225 278.8801 0001810  78.9720 281.1618 13.21826452148437
ONEWEB-0600             
1 54664U 22166Y   25358.25937399 -.00000016  00000+0 -70779-4 0  9994
2 54664  87.9226 278.8745 0001889  75.4818 284.6525 13.21826518148407
ONEWEB-0601             
1 54665U 22166Z   25358.25114594  .00000023  00000+0  24135-4 0  9990
2 54665  87.9229 278.8942 0001932  83.3040 276.8314 13.21826542148590
ONEWEB-0602             
1 54666U 22166AA  25358.06436724  .00000089  00000+0  18430-3 0  9994
2 54666  87.9228 278.9353 0002062  71.3464 288.7894 13.21823943148417
ONEWEB-0603             
1 54667U 22166AB  25358.29720607 -.00001986  00000+0 -48402-2 0  9996
2 54667  87.9208 278.8334 0002440  65.8856 294.2533 13.21839390148377
ONEWEB-0604             
1 54668U 22166AC  25358.28570731  .00000046  00000+0  81030-4 0  9997
2 54668  87.9228 278.8502 0001747  73.9181 286.2145 13.21825701148334
ONEWEB-0605             
1 54669U 22166AD  25358.20342847  .00000133  00000+0  29093-3 0  9992
2 54669  87.9224 278.8944 0001870  95.6732 264.4616 13.21826680148395
ONEWEB-0606             
1 54670U 22166AE  25358.22481607  .00000084  00000+0  17161-3 0  9992
2 54670  87.9226 278.9016 0001570  71.4848 288.6456 13.21826800148458
ONEWEB-0607             
1 54671U 22166AF  25358.26760068  .00000024  00000+0  27572-4 0  9990
2 54671  87.9223 278.8564 0001858  77.5819 282.5523 13.21827524148437
ONEWEB-0608             
1 54672U 22166AG  25358.27418709  .00000062  00000+0  11975-3 0  9995
2 54672  87.9233 278.8445 0002046  90.6488 269.4880 13.21826016148441
ONEWEB-0610             
1 54673U 22166AH  25358.25443976  .00000713  00000+0  16938-2 0  9994
2 54673  87.9223 278.8795 0002160  90.1354 270.0027 13.21822753148347
ONEWEB-0611             
1 54674U 22166AJ  25358.24783976  .00000024  00000+0  25837-4 0  9996
2 54674  87.9226 278.8769 0001681  68.7235 291.4078 13.21828454148334
ONEWEB-0612             
1 54675U 22166AK  25358.18532167  .00000057  00000+0  10542-3 0  9996
2 54675  87.9223 278.8692 0001823  80.2315 279.9025 13.21826486148317
ONEWEB-0615             
1 54676U 22166AL  25358.24126600  .00000042  00000+0  71356-4 0  9990
2 54676  87.9226 278.8845 0001751  76.1533 283.9796 13.21827918148330
